ICEYE-X4                
1 44390U 19038D   26182.98390215  .00015022  00000+0  52471-3 0  9998
2 44390  97.8746 216.7687 0011699 247.6685 112.3314 15.29621370384066
ICEYE-X25               
1 56963U 23084AH  26182.93030772  .00055178  00000+0  63816-3 0  9998
2 56963  97.5899 330.2075 0003588 226.0583 134.0378 15.61696293170279
ICEYE-X31               
1 58288U 23174AJ  26182.93909253  .00021797  00000+0  64754-3 0  9991
2 58288  97.3779 258.6793 0001413 232.1565 127.9551 15.34789536147012
ICEYE-X34               
1 58294U 23174AQ  26182.55040588  .00142596  00000+0  12944-2 0  9997
2 58294  97.3877 274.4629 0002722 160.4963 199.6402 15.67548221147999
ICEYE-X35               
1 58302U 23174AY  26182.93085713  .00062349  00000+0  96296-3 0  9998
2 58302  97.3795 267.9222 0008958 148.9366 211.2419 15.53870021147630
ICEYE-X38               
1 59100U 24043C   26182.93265132  .00006231  00000+0  35687-3 0  9991
2 59100  97.8426 327.0866 0003387  56.4606 303.6947 15.12991150113903
ICEYE-X37               
1 59102U 24043E   26182.92929175  .00004838  00000+0  33374-3 0  9998
2 59102  97.8333 320.1626 0014295 322.7090  37.3143 15.06216373127304
ICEYE-X36               
1 59103U 24043F   26182.92491900  .00005148  00000+0  34670-3 0  9994
2 59103  97.8393 321.2589 0004614 268.2834  91.7864 15.07149980127365
ICEYE-X39               
1 60546U 24149CG  26182.68670511  .00004089  00000+0  33354-3 0  9995
2 60546  97.6768 259.5132 0006661  81.8561 278.3418 14.99986059102298
ICEYE-X33               
1 60548U 24149CJ  26182.16949363  .00005006  00000+0  39827-3 0  9995
2 60548  97.7330 261.2397 0001798  73.8785 286.2637 15.00863132102306
