{
 "generated_at": "2026-07-02T08:12:02Z",
 "sources": [
  {
   "name": "CelesTrak",
   "url": "https://celestrak.org/NORAD/elements/",
   "license": "frei verfügbar; Attribution. Ursprünglich USSPACECOM/Space-Track."
  },
  {
   "name": "GCAT (J. McDowell, planet4589.org)",
   "url": "https://planet4589.org/space/gcat/",
   "license": "CC-BY 4.0"
  }
 ],
 "satellites": [
  {
   "norad": 56963,
   "name": "ICEYE-X25",
   "intl": "2023-084AH",
   "group": "sar",
   "gcat": {
    "class": "B",
    "category": "IMG-R",
    "owner": "ICEYE",
    "state": "FI"
   },
   "omm": {
    "OBJECT_NAME": "ICEYE-X25",
    "OBJECT_ID": "2023-084AH",
    "EPOCH": "2026-07-01T22:19:38.587008",
    "MEAN_MOTION": 15.61696293,
    "ECCENTRICITY": 0.00035882,
    "INCLINATION": 97.5899,
    "RA_OF_ASC_NODE": 330.2075,
    "ARG_OF_PERICENTER": 226.0583,
    "MEAN_ANOMALY": 134.0378,
    "EPHEMERIS_TYPE": 0,
    "CLASSIFICATION_TYPE": "U",
    "NORAD_CAT_ID": 56963,
    "ELEMENT_SET_NO": 999,
    "REV_AT_EPOCH": 17027,
    "BSTAR": 0.0006381632,
    "MEAN_MOTION_DOT": 0.00055178,
    "MEAN_MOTION_DDOT": 0
   }
  },
  {
   "norad": 58288,
   "name": "ICEYE-X31",
   "intl": "2023-174AJ",
   "group": "sar",
   "gcat": {
    "class": "B",
    "category": "IMG-R",
    "owner": "ICEYE",
    "state": "FI"
   },
   "omm": {
    "OBJECT_NAME": "ICEYE-X31",
    "OBJECT_ID": "2023-174AJ",
    "EPOCH": "2026-07-01T22:32:17.594592",
    "MEAN_MOTION": 15.34789536,
    "ECCENTRICITY": 0.00014139,
    "INCLINATION": 97.3779,
    "RA_OF_ASC_NODE": 258.6793,
    "ARG_OF_PERICENTER": 232.1565,
    "MEAN_ANOMALY": 127.9551,
    "EPHEMERIS_TYPE": 0,
    "CLASSIFICATION_TYPE": "U",
    "NORAD_CAT_ID": 58288,
    "ELEMENT_SET_NO": 999,
    "REV_AT_EPOCH": 14701,
    "BSTAR": 0.0006475356,
    "MEAN_MOTION_DOT": 0.00021797,
    "MEAN_MOTION_DDOT": 0
   }
  },
  {
   "norad": 60548,
   "name": "ICEYE-X33",
   "intl": "2024-149CJ",
   "group": "sar",
   "gcat": {
    "class": "B",
    "category": "IMG-R",
    "owner": "ICEUS/ICEYE",
    "state": "US"
   },
   "omm": {
    "OBJECT_NAME": "ICEYE-X33",
    "OBJECT_ID": "2024-149CJ",
    "EPOCH": "2026-07-01T04:04:04.249632",
    "MEAN_MOTION": 15.00863132,
    "ECCENTRICITY": 0.00017982,
    "INCLINATION": 97.733,
    "RA_OF_ASC_NODE": 261.2397,
    "ARG_OF_PERICENTER": 73.8785,
    "MEAN_ANOMALY": 286.2637,
    "EPHEMERIS_TYPE": 0,
    "CLASSIFICATION_TYPE": "U",
    "NORAD_CAT_ID": 60548,
    "ELEMENT_SET_NO": 999,
    "REV_AT_EPOCH": 10230,
    "BSTAR": 0.00039826823,
    "MEAN_MOTION_DOT": 0.00005006,
    "MEAN_MOTION_DDOT": 0
   }
  },
  {
   "norad": 58294,
   "name": "ICEYE-X34",
   "intl": "2023-174AQ",
   "group": "sar",
   "gcat": {
    "class": "B",
    "category": "IMG-R",
    "owner": "ICEUS",
    "state": "US"
   },
   "omm": {
    "OBJECT_NAME": "ICEYE-X34",
    "OBJECT_ID": "2023-174AQ",
    "EPOCH": "2026-07-01T13:12:35.068032",
    "MEAN_MOTION": 15.67548221,
    "ECCENTRICITY": 0.00027228,
    "INCLINATION": 97.3877,
    "RA_OF_ASC_NODE": 274.4629,
    "ARG_OF_PERICENTER": 160.4963,
    "MEAN_ANOMALY": 199.6402,
    "EPHEMERIS_TYPE": 0,
    "CLASSIFICATION_TYPE": "U",
    "NORAD_CAT_ID": 58294,
    "ELEMENT_SET_NO": 999,
    "REV_AT_EPOCH": 14799,
    "BSTAR": 0.0012944339,
    "MEAN_MOTION_DOT": 0.00142596,
    "MEAN_MOTION_DDOT": 0
   }
  },
  {
   "norad": 58302,
   "name": "ICEYE-X35",
   "intl": "2023-174AY",
   "group": "sar",
   "gcat": {
    "class": "B",
    "category": "IMG-R",
    "owner": "ICEYE",
    "state": "FI"
   },
   "omm": {
    "OBJECT_NAME": "ICEYE-X35",
    "OBJECT_ID": "2023-174AY",
    "EPOCH": "2026-07-01T22:20:26.056032",
    "MEAN_MOTION": 15.53870021,
    "ECCENTRICITY": 0.00089584,
    "INCLINATION": 97.3795,
    "RA_OF_ASC_NODE": 267.9222,
    "ARG_OF_PERICENTER": 148.9366,
    "MEAN_ANOMALY": 211.2419,
    "EPHEMERIS_TYPE": 0,
    "CLASSIFICATION_TYPE": "U",
    "NORAD_CAT_ID": 58302,
    "ELEMENT_SET_NO": 999,
    "REV_AT_EPOCH": 14763,
    "BSTAR": 0.00096296042,
    "MEAN_MOTION_DOT": 0.00062349,
    "MEAN_MOTION_DDOT": 0
   }
  },
  {
   "norad": 59103,
   "name": "ICEYE-X36",
   "intl": "2024-043F",
   "group": "sar",
   "gcat": {
    "class": "B",
    "category": "IMG-R",
    "owner": "ICEUS",
    "state": "US"
   },
   "omm": {
    "OBJECT_NAME": "ICEYE-X36",
    "OBJECT_ID": "2024-043F",
    "EPOCH": "2026-07-01T22:11:53.001600",
    "MEAN_MOTION": 15.0714998,
    "ECCENTRICITY": 0.00046148,
    "INCLINATION": 97.8393,
    "RA_OF_ASC_NODE": 321.2589,
    "ARG_OF_PERICENTER": 268.2834,
    "MEAN_ANOMALY": 91.7864,
    "EPHEMERIS_TYPE": 0,
    "CLASSIFICATION_TYPE": "U",
    "NORAD_CAT_ID": 59103,
    "ELEMENT_SET_NO": 999,
    "REV_AT_EPOCH": 12736,
    "BSTAR": 0.00034669574,
    "MEAN_MOTION_DOT": 0.00005148,
    "MEAN_MOTION_DDOT": 0
   }
  },
  {
   "norad": 59102,
   "name": "ICEYE-X37",
   "intl": "2024-043E",
   "group": "sar",
   "gcat": {
    "class": "B",
    "category": "IMG-R",
    "owner": "ICEUS",
    "state": "US"
   },
   "omm": {
    "OBJECT_NAME": "ICEYE-X37",
    "OBJECT_ID": "2024-043E",
    "EPOCH": "2026-07-01T22:18:10.807200",
    "MEAN_MOTION": 15.06216373,
    "ECCENTRICITY": 0.00142958,
    "INCLINATION": 97.8333,
    "RA_OF_ASC_NODE": 320.1626,
    "ARG_OF_PERICENTER": 322.709,
    "MEAN_ANOMALY": 37.3143,
    "EPHEMERIS_TYPE": 0,
    "CLASSIFICATION_TYPE": "U",
    "NORAD_CAT_ID": 59102,
    "ELEMENT_SET_NO": 999,
    "REV_AT_EPOCH": 12730,
    "BSTAR": 0.0003337407,
    "MEAN_MOTION_DOT": 0.00004838,
    "MEAN_MOTION_DDOT": 0
   }
  },
  {
   "norad": 59100,
   "name": "ICEYE-X38",
   "intl": "2024-043C",
   "group": "sar",
   "gcat": {
    "class": "B",
    "category": "IMG-R",
    "owner": "ICEYE",
    "state": "FI"
   },
   "omm": {
    "OBJECT_NAME": "ICEYE-X38",
    "OBJECT_ID": "2024-043C",
    "EPOCH": "2026-07-01T22:23:01.074048",
    "MEAN_MOTION": 15.1299115,
    "ECCENTRICITY": 0.00033879,
    "INCLINATION": 97.8426,
    "RA_OF_ASC_NODE": 327.0866,
    "ARG_OF_PERICENTER": 56.4606,
    "MEAN_ANOMALY": 303.6947,
    "EPHEMERIS_TYPE": 0,
    "CLASSIFICATION_TYPE": "U",
    "NORAD_CAT_ID": 59100,
    "ELEMENT_SET_NO": 999,
    "REV_AT_EPOCH": 11390,
    "BSTAR": 0.00035687069,
    "MEAN_MOTION_DOT": 0.00006231,
    "MEAN_MOTION_DDOT": 0
   }
  },
  {
   "norad": 60546,
   "name": "ICEYE-X39",
   "intl": "2024-149CG",
   "group": "sar",
   "gcat": {
    "class": "B",
    "category": "IMG-R",
    "owner": "FAB/ICEYE",
    "state": "BR"
   },
   "omm": {
    "OBJECT_NAME": "ICEYE-X39",
    "OBJECT_ID": "2024-149CG",
    "EPOCH": "2026-07-01T16:28:51.321504",
    "MEAN_MOTION": 14.99986059,
    "ECCENTRICITY": 0.00066615,
    "INCLINATION": 97.6768,
    "RA_OF_ASC_NODE": 259.5132,
    "ARG_OF_PERICENTER": 81.8561,
    "MEAN_ANOMALY": 278.3418,
    "EPHEMERIS_TYPE": 0,
    "CLASSIFICATION_TYPE": "U",
    "NORAD_CAT_ID": 60546,
    "ELEMENT_SET_NO": 999,
    "REV_AT_EPOCH": 10229,
    "BSTAR": 0.0003335432,
    "MEAN_MOTION_DOT": 0.00004089,
    "MEAN_MOTION_DDOT": 0
   }
  },
  {
   "norad": 44390,
   "name": "ICEYE-X4",
   "intl": "2019-038D",
   "group": "sar",
   "gcat": {
    "class": "B",
    "category": "IMG-R",
    "owner": "ICEYE",
    "state": "FI"
   },
   "omm": {
    "OBJECT_NAME": "ICEYE-X4",
    "OBJECT_ID": "2019-038D",
    "EPOCH": "2026-07-01T23:36:49.145760",
    "MEAN_MOTION": 15.2962137,
    "ECCENTRICITY": 0.00116999,
    "INCLINATION": 97.8746,
    "RA_OF_ASC_NODE": 216.7687,
    "ARG_OF_PERICENTER": 247.6685,
    "MEAN_ANOMALY": 112.3314,
    "EPHEMERIS_TYPE": 0,
    "CLASSIFICATION_TYPE": "U",
    "NORAD_CAT_ID": 44390,
    "ELEMENT_SET_NO": 999,
    "REV_AT_EPOCH": 38406,
    "BSTAR": 0.00052471077,
    "MEAN_MOTION_DOT": 0.00015022,
    "MEAN_MOTION_DDOT": 0
   }
  }
 ]
}
